STARLINK-2500           
1 48485U 21040BK  26068.62579050  .00000702  00000+0  35824-4 0  9996
2 48485  53.1601 194.0306 0001337  88.4337 271.6817 15.30194354266457
SCS-01 D                
1 63985U 25100D   26068.75607686  .00032471  00000+0  10528-2 0  9990
2 63985  97.3730 145.4097 0006346 266.2302  93.8214 15.31902149 45621
